STARLINK-3159_new
1 19415C 21104H   21326.14827670 -.00864886  00000-0 -32492-2 0  3268
2 19415  53.2176  90.8330 0024809  64.8993 234.4305 15.87440783    13
STARLINK-3159_old
1 29415C 21104H   21325.19151048 -.00818815  00000-0 -27767-2 0  3250
2 29415  53.2174  95.6741 0032249  63.7252 161.8306 15.89063214    19
